[{"OBJECT_NAME":"COSMOS 2588","OBJECT_ID":"2025-109A","EPOCH":"2026-03-09T19:28:59.107008","MEAN_MOTION":15.29122656,"ECCENTRICITY":0.0005019,"INCLINATION":72.9704,"RA_OF_ASC_NODE":73.5401,"ARG_OF_PERICENTER":308.678,"MEAN_ANOMALY":51.3966,"EPHEMERIS_TYPE":0,"CLASSIFICATION_TYPE":"U","NORAD_CAT_ID":64095,"ELEMENT_SET_NO":999,"REV_AT_EPOCH":4442,"BSTAR":0.00032611,"MEAN_MOTION_DOT":9.169e-5,"MEAN_MOTION_DDOT":0},{"OBJECT_NAME":"STARLINK-35350","OBJECT_ID":"2025-243L","EPOCH":"2026-03-09T17:07:20.308800","MEAN_MOTION":15.30198438,"ECCENTRICITY":8.715e-5,"INCLINATION":53.1578,"RA_OF_ASC_NODE":245.4147,"ARG_OF_PERICENTER":89.8778,"MEAN_ANOMALY":270.2322,"EPHEMERIS_TYPE":0,"CLASSIFICATION_TYPE":"U","NORAD_CAT_ID":66187,"ELEMENT_SET_NO":999,"REV_AT_EPOCH":2065,"BSTAR":0.00093008315,"MEAN_MOTION_DOT":0.00027287,"MEAN_MOTION_DDOT":0}]
